[{"OBJECT_NAME":"HST","OBJECT_ID":"1990-037B","EPOCH":"2026-03-05T02:44:22.469280","MEAN_MOTION":15.29398003,"ECCENTRICITY":0.0001766,"INCLINATION":28.4704,"RA_OF_ASC_NODE":71.2101,"ARG_OF_PERICENTER":80.6022,"MEAN_ANOMALY":279.4773,"EPHEMERIS_TYPE":0,"CLASSIFICATION_TYPE":"U","NORAD_CAT_ID":20580,"ELEMENT_SET_NO":999,"REV_AT_EPOCH":77261,"BSTAR":0.00033044,"MEAN_MOTION_DOT":9.931e-5,"MEAN_MOTION_DDOT":0},{"OBJECT_NAME":"POLAR","OBJECT_ID":"1996-013A","EPOCH":"2026-03-04T06:52:54.680736","MEAN_MOTION":1.29845819,"ECCENTRICITY":0.63638561,"INCLINATION":79.7435,"RA_OF_ASC_NODE":228.2507,"ARG_OF_PERICENTER":212.6367,"MEAN_ANOMALY":83.7638,"EPHEMERIS_TYPE":0,"CLASSIFICATION_TYPE":"U","NORAD_CAT_ID":23802,"ELEMENT_SET_NO":999,"REV_AT_EPOCH":14349,"BSTAR":0,"MEAN_MOTION_DOT":1.7e-6,"MEAN_MOTION_DDOT":0},{"OBJECT_NAME":"SWAS","OBJECT_ID":"1998-071A","EPOCH":"2026-03-05T14:57:54.486720","MEAN_MOTION":15.08847105,"ECCENTRICITY":0.0003747,"INCLINATION":69.8961,"RA_OF_ASC_NODE":134.4412,"ARG_OF_PERICENTER":19.7014,"MEAN_ANOMALY":340.4293,"EPHEMERIS_TYPE":0,"CLASSIFICATION_TYPE":"U","NORAD_CAT_ID":25560,"ELEMENT_SET_NO":999,"REV_AT_EPOCH":48164,"BSTAR":0.00036919,"MEAN_MOTION_DOT":5.726e-5,"MEAN_MOTION_DDOT":0},{"OBJECT_NAME":"CXO","OBJECT_ID":"1999-040B","EPOCH":"2026-03-07T05:51:16.436736","MEAN_MOTION":0.37807298,"ECCENTRICITY":0.79978948,"INCLINATION":54.5001,"RA_OF_ASC_NODE":119.7161,"ARG_OF_PERICENTER":310.7431,"MEAN_ANOMALY":0.4039,"EPHEMERIS_TYPE":0,"CLASSIFICATION_TYPE":"U","NORAD_CAT_ID":25867,"ELEMENT_SET_NO":999,"REV_AT_EPOCH":1694,"BSTAR":0,"MEAN_MOTION_DOT":8.3e-6,"MEAN_MOTION_DDOT":0},{"OBJECT_NAME":"XMM-NEWTON","OBJECT_ID":"1999-066A","EPOCH":"2026-03-02T15:24:13.123584","MEAN_MOTION":0.50131664,"ECCENTRICITY":0.47125523,"INCLINATION":65.0189,"RA_OF_ASC_NODE":284.3763,"ARG_OF_PERICENTER":66.813,"MEAN_ANOMALY":359.9781,"EPHEMERIS_TYPE":0,"CLASSIFICATION_TYPE":"U","NORAD_CAT_ID":25989,"ELEMENT_SET_NO":999,"REV_AT_EPOCH":2247,"BSTAR":0,"MEAN_MOTION_DOT":6.2e-7,"MEAN_MOTION_DDOT":0},{"OBJECT_NAME":"TERRA","OBJECT_ID":"1999-068A","EPOCH":"2026-03-05T17:58:57.742752","MEAN_MOTION":14.61010039,"ECCENTRICITY":0.0002458,"INCLINATION":97.9601,"RA_OF_ASC_NODE":118.3344,"ARG_OF_PERICENTER":160.917,"MEAN_ANOMALY":293.1291,"EPHEMERIS_TYPE":0,"CLASSIFICATION_TYPE":"U","NORAD_CAT_ID":25994,"ELEMENT_SET_NO":999,"REV_AT_EPOCH":39450,"BSTAR":0.00013779,"MEAN_MOTION_DOT":6.31e-6,"MEAN_MOTION_DDOT":0},{"OBJECT_NAME":"CLUSTER II-FM7 (SAMBA)","OBJECT_ID":"2000-041A","EPOCH":"2026-03-04T06:04:28.507872","MEAN_MOTION":0.44785609,"ECCENTRICITY":0.89087774,"INCLINATION":148.992,"RA_OF_ASC_NODE":34.5676,"ARG_OF_PERICENTER":250.6745,"MEAN_ANOMALY":359.7226,"EPHEMERIS_TYPE":0,"CLASSIFICATION_TYPE":"U","NORAD_CAT_ID":26410,"ELEMENT_SET_NO":999,"REV_AT_EPOCH":1983,"BSTAR":0,"MEAN_MOTION_DOT":3.639e-5,"MEAN_MOTION_DDOT":0},{"OBJECT_NAME":"CLUSTER II-FM8 (TANGO)","OBJECT_ID":"2000-045B","EPOCH":"2026-02-18T01:30:32.809536","MEAN_MOTION":0.44405995,"ECCENTRICITY":0.88900451,"INCLINATION":149.0711,"RA_OF_ASC_NODE":33.5376,"ARG_OF_PERICENTER":249.457,"MEAN_ANOMALY":359.4916,"EPHEMERIS_TYPE":0,"CLASSIFICATION_TYPE":"U","NORAD_CAT_ID":26464,"ELEMENT_SET_NO":999,"REV_AT_EPOCH":1976,"BSTAR":0,"MEAN_MOTION_DOT":4.776e-5,"MEAN_MOTION_DDOT":0},{"OBJECT_NAME":"ODIN","OBJECT_ID":"2001-007A","EPOCH":"2026-03-05T14:49:05.686752","MEAN_MOTION":15.58182991,"ECCENTRICITY":0.0004275,"INCLINATION":97.4074,"RA_OF_ASC_NODE":100.4965,"ARG_OF_PERICENTER":150.3706,"MEAN_ANOMALY":209.7793,"EPHEMERIS_TYPE":0,"CLASSIFICATION_TYPE":"U","NORAD_CAT_ID":26702,"ELEMENT_SET_NO":999,"REV_AT_EPOCH":37320,"BSTAR":0.00063415,"MEAN_MOTION_DOT":0.00047944,"MEAN_MOTION_DDOT":0},{"OBJECT_NAME":"TIMED","OBJECT_ID":"2001-055B","EPOCH":"2026-03-05T18:21:15.435072","MEAN_MOTION":14.95008295,"ECCENTRICITY":0.0002998,"INCLINATION":74.066,"RA_OF_ASC_NODE":83.2203,"ARG_OF_PERICENTER":280.4869,"MEAN_ANOMALY":79.5978,"EPHEMERIS_TYPE":0,"CLASSIFICATION_TYPE":"U","NORAD_CAT_ID":26998,"ELEMENT_SET_NO":999,"REV_AT_EPOCH":31536,"BSTAR":0.00018321,"MEAN_MOTION_DOT":1.965e-5,"MEAN_MOTION_DDOT":0},{"OBJECT_NAME":"CORIOLIS","OBJECT_ID":"2003-001A","EPOCH":"2026-03-05T14:42:06.852384","MEAN_MOTION":14.19910987,"ECCENTRICITY":0.0014596,"INCLINATION":98.7161,"RA_OF_ASC_NODE":73.0673,"ARG_OF_PERICENTER":147.6829,"MEAN_ANOMALY":212.5245,"EPHEMERIS_TYPE":0,"CLASSIFICATION_TYPE":"U","NORAD_CAT_ID":27640,"ELEMENT_SET_NO":999,"REV_AT_EPOCH":19952,"BSTAR":0.00011596,"MEAN_MOTION_DOT":2.03e-6,"MEAN_MOTION_DDOT":0},{"OBJECT_NAME":"SORCE","OBJECT_ID":"2003-004A","EPOCH":"2026-03-05T15:30:32.163840","MEAN_MOTION":15.03061843,"ECCENTRICITY":0.001636,"INCLINATION":39.9903,"RA_OF_ASC_NODE":132.1478,"ARG_OF_PERICENTER":24.3738,"MEAN_ANOMALY":335.7827,"EPHEMERIS_TYPE":0,"CLASSIFICATION_TYPE":"U","NORAD_CAT_ID":27651,"ELEMENT_SET_NO":999,"REV_AT_EPOCH":25631,"BSTAR":0.00035955,"MEAN_MOTION_DOT":4.796e-5,"MEAN_MOTION_DDOT":0},{"OBJECT_NAME":"MOST","OBJECT_ID":"2003-031D","EPOCH":"2026-03-05T14:04:32.119104","MEAN_MOTION":14.21297943,"ECCENTRICITY":0.0009712,"INCLINATION":98.7083,"RA_OF_ASC_NODE":73.7446,"ARG_OF_PERICENTER":185.3715,"MEAN_ANOMALY":174.7359,"EPHEMERIS_TYPE":0,"CLASSIFICATION_TYPE":"U","NORAD_CAT_ID":27843,"ELEMENT_SET_NO":999,"REV_AT_EPOCH":17599,"BSTAR":7.3946e-5,"MEAN_MOTION_DOT":1.18e-6,"MEAN_MOTION_DDOT":0},{"OBJECT_NAME":"SCISAT 1","OBJECT_ID":"2003-036A","EPOCH":"2026-03-05T13:31:09.056064","MEAN_MOTION":14.81302567,"ECCENTRICITY":0.0005862,"INCLINATION":73.9318,"RA_OF_ASC_NODE":17.2093,"ARG_OF_PERICENTER":109.8159,"MEAN_ANOMALY":250.3649,"EPHEMERIS_TYPE":0,"CLASSIFICATION_TYPE":"U","NORAD_CAT_ID":27858,"ELEMENT_SET_NO":999,"REV_AT_EPOCH":21610,"BSTAR":0.00017926,"MEAN_MOTION_DOT":1.363e-5,"MEAN_MOTION_DDOT":0},{"OBJECT_NAME":"SWIFT","OBJECT_ID":"2004-047A","EPOCH":"2026-03-05T18:29:09.021984","MEAN_MOTION":15.58889786,"ECCENTRICITY":0.0003265,"INCLINATION":20.5529,"RA_OF_ASC_NODE":257.02,"ARG_OF_PERICENTER":342.8585,"MEAN_ANOMALY":17.1748,"EPHEMERIS_TYPE":0,"CLASSIFICATION_TYPE":"U","NORAD_CAT_ID":28485,"ELEMENT_SET_NO":999,"REV_AT_EPOCH":17065,"BSTAR":0.00056644,"MEAN_MOTION_DOT":0.00046852,"MEAN_MOTION_DDOT":0},{"OBJECT_NAME":"HINODE (SOLAR-B)","OBJECT_ID":"2006-041A","EPOCH":"2026-03-05T14:52:05.429856","MEAN_MOTION":14.68466541,"ECCENTRICITY":0.0016187,"INCLINATION":98.0626,"RA_OF_ASC_NODE":82.2741,"ARG_OF_PERICENTER":255.5128,"MEAN_ANOMALY":104.4281,"EPHEMERIS_TYPE":0,"CLASSIFICATION_TYPE":"U","NORAD_CAT_ID":29479,"ELEMENT_SET_NO":999,"REV_AT_EPOCH":3967,"BSTAR":0.00017908,"MEAN_MOTION_DOT":9.9e-6,"MEAN_MOTION_DDOT":0},{"OBJECT_NAME":"SHIJIAN-6 02A (SJ-6 02A)","OBJECT_ID":"2006-046A","EPOCH":"2026-03-05T18:00:21.309696","MEAN_MOTION":15.15628553,"ECCENTRICITY":0.0004541,"INCLINATION":97.6501,"RA_OF_ASC_NODE":105.0636,"ARG_OF_PERICENTER":122.0028,"MEAN_ANOMALY":238.1645,"EPHEMERIS_TYPE":0,"CLASSIFICATION_TYPE":"U","NORAD_CAT_ID":29505,"ELEMENT_SET_NO":999,"REV_AT_EPOCH":5659,"BSTAR":0.00033646,"MEAN_MOTION_DOT":6.328e-5,"MEAN_MOTION_DDOT":0}]
