HST                     
1 20580U 90037B   26064.11414895  .00009931  00000+0  33044-3 0  9993
2 20580  28.4704  71.2101 0001766  80.6022 279.4773 15.29398003772614
POLAR                   
1 23802U 96013A   26063.28674399  .00000170  00000+0  00000+0 0  9995
2 23802  79.7435 228.2507 6363856 212.6367  83.7638  1.29845819143495
SWAS                    
1 25560U 98071A   26064.62354730  .00005726  00000+0  36919-3 0  9991
2 25560  69.8961 134.4412 0003747  19.7014 340.4293 15.08847105481648
CXO                     
1 25867U 99040B   26066.24394024  .00000830  00000+0  00000+0 0  9997
2 25867  54.5001 119.7161 7997894 310.7431   0.4039  0.37807298 16943
XMM-NEWTON              
1 25989U 99066A   26061.64181856  .00000062  00000+0  00000+0 0  9993
2 25989  65.0189 284.3763 4712552  66.8130 359.9781  0.50131664 22470
TERRA                   
1 25994U 99068A   26064.74927943  .00000631  00000+0  13779-3 0  9993
2 25994  97.9601 118.3344 0002458 160.9170 293.1291 14.61010039394503
CLUSTER II-FM7 (SAMBA)  
1 26410U 00041A   26063.25310773  .00003639  00000+0  00000+0 0  9992
2 26410 148.9920  34.5676 8908777 250.6745 359.7226  0.44785609 19832
CLUSTER II-FM8 (TANGO)  
1 26464U 00045B   26049.06287974  .00004776  00000+0  00000+0 0  9997
2 26464 149.0711  33.5376 8890045 249.4570 359.4916  0.44405995 19769
ODIN                    
1 26702U 01007A   26064.61742693  .00047944  00000+0  63415-3 0  9990
2 26702  97.4074 100.4965 0004275 150.3706 209.7793 15.58182991373206
TIMED                   
1 26998U 01055B   26064.76476198  .00001965  00000+0  18321-3 0  9999
2 26998  74.0660  83.2203 0002998 280.4869  79.5978 14.95008295315368
CORIOLIS                
1 27640U 03001A   26064.61257931  .00000203  00000+0  11596-3 0  9994
2 27640  98.7161  73.0673 0014596 147.6829 212.5245 14.19910987199527
SORCE                   
1 27651U 03004A   26064.64620560  .00004796  00000+0  35955-3 0  9990
2 27651  39.9903 132.1478 0016360  24.3738 335.7827 15.03061843256318
MOST                    
1 27843U 03031D   26064.58648286  .00000118  00000+0  73946-4 0  9998
2 27843  98.7083  73.7446 0009712 185.3715 174.7359 14.21297943175990
SCISAT 1                
1 27858U 03036A   26064.56329926  .00001363  00000+0  17926-3 0  9992
2 27858  73.9318  17.2093 0005862 109.8159 250.3649 14.81302567216105
SWIFT                   
1 28485U 04047A   26064.77024331  .00046852  00000+0  56644-3 0  9999
2 28485  20.5529 257.0200 0003265 342.8585  17.1748 15.58889786170651
HINODE (SOLAR-B)        
1 29479U 06041A   26064.61950729  .00000990  00000+0  17908-3 0  9994
2 29479  98.0626  82.2741 0016187 255.5128 104.4281 14.68466541 39679
SHIJIAN-6 02A (SJ-6 02A)
1 29505U 06046A   26064.75024664  .00006328  00000+0  33646-3 0  9992
2 29505  97.6501 105.0636 0004541 122.0028 238.1645 15.15628553 56596
